ONEWEB-0440             
1 50503U 21132AL  23059.50359000  .00000080  00000+0  17144-3 0  9990
2 50503  87.9222 214.8243 0001477  71.3927 288.7365 13.18686715 62808
ONEWEB-0440             
1 50503U 21132AL  23059.50359000  .00000080  00000+0  17144-3 0  9990
2 50503  87.9222 214.8243 0001477  71.3927 288.7365 13.18686715 64091
ONEWEB-0440             
1 50503U 21132AL  23059.88297227  .00000009  00000+0 -10085-4 0  9993
2 50503  87.9225 214.7492 0001461  71.5492 288.5799 13.18686988 62854
ONEWEB-0440             
1 50503U 21132AL  23060.71761346  .00000020  00000+0  18131-4 0  9997
2 50503  87.9227 214.5839 0001436  71.6460 288.4828 13.18686667 64259
ONEWEB-0440             
1 50503U 21132AL  23060.86936651  .00000007  00000+0 -15083-4 0  9995
2 50503  87.9227 214.5538 0001426  71.7371 288.3916 13.18686587 62982
ONEWEB-0440             
1 50503U 21132AL  23061.70400737  .00000039  00000+0  66508-4 0  9992
2 50503  87.9229 214.3885 0001385  71.3787 288.7495 13.18686773 63094
ONEWEB-0440             
1 50503U 21132AL  23062.38689564  .00000099  00000+0  21811-3 0  9997
2 50503  87.9230 214.2532 0001342  71.4637 288.6641 13.18686614 64471
ONEWEB-0440             
1 50503U 21132AL  23062.46277200  .00000096  00000+0  21077-3 0  9997
2 50503  87.9230 214.2382 0001339  71.5417 288.5860 13.18686764 63193
ONEWEB-0440             
1 50503U 21132AL  23062.84215452  .00000036  00000+0  59545-4 0  9996
2 50503  87.9231 214.1630 0001320  71.8512 288.2763 13.18686793 63245
